IRIDIUM 119             
1 42959U 17061E   25154.49295633  .00000336  00000+0  11298-3 0  9997
2 42959  86.3999 183.5028 0002435  98.2336 261.9136 14.34222516400537
IRIDIUM 107             
1 42960U 17061F   25154.58174704  .00000378  00000+0  12785-3 0  9992
2 42960  86.4000 183.4849 0002840  94.0791 266.0729 14.34219280400563
IRIDIUM 132             
1 42961U 17061G   25154.58808698  .00000098  00000+0  27880-4 0  9991
2 42961  86.3999 183.4645 0002471  92.3361 267.8118 14.34217663400551
IRIDIUM 136             
1 42962U 17061H   25154.55003221  .00000011  00000+0 -30333-5 0  9992
2 42962  86.4003 183.4849 0002402  97.2127 262.9342 14.34217585400562
IRIDIUM 139             
1 42963U 17061J   25155.11452146  .00000136  00000+0  41418-4 0  9992
2 42963  86.3999 183.3053 0002643  92.4450 267.7049 14.34217553400657
IRIDIUM 125             
1 42964U 17061K   25154.61345836  .00000004  00000+0 -57421-5 0  9991
2 42964  86.4007 183.5682 0002637 104.0524 256.0965 14.34217543400594
IRIDIUM 135             
1 43070U 17083A   25154.86665664  .00000085  00000+0  23337-4 0  9991
2 43070  86.3955 120.1865 0002149  81.8844 278.2595 14.34218093389928
IRIDIUM 138             
1 43071U 17083B   25155.17110105  .00000062  00000+0  15014-4 0  9990
2 43071  86.3944 119.7318 0002120  99.3596 260.7840 14.34217969389954
